[{"OBJECT_NAME":"STARLINK-5977","OBJECT_ID":"2023-078AA","EPOCH":"2026-03-09T21:30:17.415360","MEAN_MOTION":14.98338947,"ECCENTRICITY":0.00031533,"INCLINATION":70.001,"RA_OF_ASC_NODE":343.8401,"ARG_OF_PERICENTER":269.6749,"MEAN_ANOMALY":90.4049,"EPHEMERIS_TYPE":0,"CLASSIFICATION_TYPE":"U","NORAD_CAT_ID":56791,"ELEMENT_SET_NO":999,"REV_AT_EPOCH":15271,"BSTAR":-0.00019998517,"MEAN_MOTION_DOT":-2.479e-5,"MEAN_MOTION_DDOT":0},{"OBJECT_NAME":"CZ-6A DEB","OBJECT_ID":"2022-151AD","EPOCH":"2026-03-09T17:57:16.876800","MEAN_MOTION":14.82404648,"ECCENTRICITY":0.00830504,"INCLINATION":98.5956,"RA_OF_ASC_NODE":149.7366,"ARG_OF_PERICENTER":144.8242,"MEAN_ANOMALY":215.8491,"EPHEMERIS_TYPE":0,"CLASSIFICATION_TYPE":"U","NORAD_CAT_ID":54286,"ELEMENT_SET_NO":999,"REV_AT_EPOCH":17665,"BSTAR":0.0024695281,"MEAN_MOTION_DOT":0.00021003,"MEAN_MOTION_DDOT":0}]
